start=new Date('2023-03-17T00:00:00.000Z').valueOf();
sats=[{"OBJECT_NAME":"STARLINK-5365","APOAPSIS":"485.645","TLE_LINE1":"1 55498U 23015BB  23075.91667824 -.01215327  00000-0 -48901-1 0  9998","CLASSIFICATION_TYPE":"U","TIME_SYSTEM":"UTC","TLE_LINE2":"2 55498  43.0006 135.6362 0001330 270.0314 225.5555 15.27018569  1303","OBJECT_ID":"2023-015BB","REV_AT_EPOCH":"130","BSTAR":"-0.04890100000000","SEMIMAJOR_AXIS":"6862.868","PERIAPSIS":"483.820","ARG_OF_PERICENTER":"270.0314","ECCENTRICITY":"0.00013300","REF_FRAME":"TEME","EPHEMERIS_TYPE":"0","MEAN_MOTION":"15.27018569","GP_ID":"228285278","RCS_SIZE":"LARGE","NORAD_CAT_ID":"55498","PERIOD":"94.301","EPOCH":"2023-03-16T22:00:00.999936","FILE":"3862592","CENTER_NAME":"EARTH","MEAN_MOTION_DDOT":"0.0000000000000","MEAN_ELEMENT_THEORY":"SGP4","DECAY_DATE":null,"ELEMENT_SET_NO":"999","MEAN_ANOMALY":"225.5555","LAUNCH_DATE":"2023-02-02","RA_OF_ASC_NODE":"135.6362","OBJECT_TYPE":"PAYLOAD","COUNTRY_CODE":"US","MEAN_MOTION_DOT":"-0.01215327","SITE":"AFETR","INCLINATION":"43.0006"},{"MEAN_MOTION":"15.27409232","EPHEMERIS_TYPE":"0","REF_FRAME":"TEME","ECCENTRICITY":"0.00013070","ARG_OF_PERICENTER":"275.9803","FILE":"3862592","EPOCH":"2023-03-16T22:00:00.999936","PERIOD":"94.277","NORAD_CAT_ID":"55499","RCS_SIZE":"LARGE","GP_ID":"228286529","OBJECT_TYPE":"PAYLOAD","RA_OF_ASC_NODE":"135.5951","LAUNCH_DATE":"2023-02-02","DECAY_DATE":null,"MEAN_ANOMALY":"236.4451","ELEMENT_SET_NO":"999","MEAN_ELEMENT_THEORY":"SGP4","MEAN_MOTION_DDOT":"0.0000000000000","CENTER_NAME":"EARTH","INCLINATION":"43.0004","SITE":"AFETR","MEAN_MOTION_DOT":"-0.01216731","COUNTRY_CODE":"US","TLE_LINE1":"1 55499U 23015BC  23075.91667824 -.01216731  00000-0 -48380-1 0  9990","APOAPSIS":"484.459","OBJECT_NAME":"STARLINK-5366","OBJECT_ID":"2023-015BC","TLE_LINE2":"2 55499  43.0004 135.5951 0001307 275.9803 236.4451 15.27409232  1303","TIME_SYSTEM":"UTC","CLASSIFICATION_TYPE":"U","BSTAR":"-0.04838000000000","REV_AT_EPOCH":"130","PERIAPSIS":"482.666","SEMIMAJOR_AXIS":"6861.697"},{"GP_ID":"228286280","RCS_SIZE":"LARGE","NORAD_CAT_ID":"55500","PERIOD":"94.322","EPOCH":"2023-03-16T22:00:00.999936","FILE":"3862592","ARG_OF_PERICENTER":"269.7457","ECCENTRICITY":"0.00013730","REF_FRAME":"TEME","EPHEMERIS_TYPE":"0","MEAN_MOTION":"15.26682108","MEAN_MOTION_DOT":"-0.01215458","COUNTRY_CODE":"US","SITE":"AFETR","INCLINATION":"43.0013","CENTER_NAME":"EARTH","MEAN_MOTION_DDOT":"0.0000000000000","DECAY_DATE":null,"ELEMENT_SET_NO":"999","MEAN_ELEMENT_THEORY":"SGP4","MEAN_ANOMALY":"210.3393","LAUNCH_DATE":"2023-02-02","RA_OF_ASC_NODE":"135.6750","OBJECT_TYPE":"PAYLOAD","TIME_SYSTEM":"UTC","CLASSIFICATION_TYPE":"U","TLE_LINE2":"2 55500  43.0013 135.6750 0001373 269.7457 210.3393 15.26682108  1303","OBJECT_ID":"2023-015BD","OBJECT_NAME":"STARLINK-5141","APOAPSIS":"486.683","TLE_LINE1":"1 55500U 23015BD  23075.91667824 -.01215458  00000-0 -49412-1 0  9995","SEMIMAJOR_AXIS":"6863.876","PERIAPSIS":"484.799","REV_AT_EPOCH":"130","BSTAR":"-0.04941200000000"},{"SEMIMAJOR_AXIS":"6862.578","PERIAPSIS":"483.533","BSTAR":"-0.04877000000000","REV_AT_EPOCH":"130","TLE_LINE2":"2 55501  43.0001 135.6220 0001325 270.0284 231.2850 15.27115365  1300","OBJECT_ID":"2023-015BE","TIME_SYSTEM":"UTC","CLASSIFICATION_TYPE":"U","TLE_LINE1":"1 55501U 23015BE  23075.91667824 -.01215641  00000-0 -48770-1 0  9996","APOAPSIS":"485.352","OBJECT_NAME":"STARLINK-5367","SITE":"AFETR","INCLINATION":"43.0001","MEAN_MOTION_DOT":"-0.01215641","COUNTRY_CODE":"US","RA_OF_ASC_NODE":"135.6220","LAUNCH_DATE":"2023-02-02","OBJECT_TYPE":"PAYLOAD","MEAN_MOTION_DDOT":"0.0000000000000","CENTER_NAME":"EARTH","MEAN_ELEMENT_THEORY":"SGP4","DECAY_DATE":null,"ELEMENT_SET_NO":"999","MEAN_ANOMALY":"231.2850","FILE":"3862592","NORAD_CAT_ID":"55501","RCS_SIZE":"LARGE","GP_ID":"228285528","PERIOD":"94.295","EPOCH":"2023-03-16T22:00:00.999936","EPHEMERIS_TYPE":"0","ARG_OF_PERICENTER":"270.0284","ECCENTRICITY":"0.00013250","REF_FRAME":"TEME","MEAN_MOTION":"15.27115365"},{"APOAPSIS":"480.185","OBJECT_NAME":"STARLINK-5749","TLE_LINE1":"1 55569U 23020A   23075.91667824 -.01259643  00000-0 -48046-1 0  9992","CLASSIFICATION_TYPE":"U","TIME_SYSTEM":"UTC","TLE_LINE2":"2 55569  42.9977 162.3134 0001393 270.8917 352.2142 15.28857066  1301","OBJECT_ID":"2023-020A","REV_AT_EPOCH":"130","BSTAR":"-0.04804600000000","SEMIMAJOR_AXIS":"6857.365","PERIAPSIS":"478.275","EPHEMERIS_TYPE":"0","ECCENTRICITY":"0.00013930","ARG_OF_PERICENTER":"270.8917","REF_FRAME":"TEME","MEAN_MOTION":"15.28857066","RCS_SIZE":"LARGE","NORAD_CAT_ID":"55569","GP_ID":"228285786","PERIOD":"94.188","EPOCH":"2023-03-16T22:00:00.999936","FILE":"3862592","MEAN_MOTION_DDOT":"0.0000000000000","CENTER_NAME":"EARTH","MEAN_ANOMALY":"352.2142","DECAY_DATE":null,"ELEMENT_SET_NO":"999","MEAN_ELEMENT_THEORY":"SGP4","RA_OF_ASC_NODE":"162.3134","LAUNCH_DATE":"2023-02-12","OBJECT_TYPE":"PAYLOAD","MEAN_MOTION_DOT":"-0.01259643","COUNTRY_CODE":"US","SITE":"AFETR","INCLINATION":"42.9977"},{"SITE":"AFETR","INCLINATION":"42.9979","COUNTRY_CODE":"US","MEAN_MOTION_DOT":"-0.01207791","LAUNCH_DATE":"2023-02-12","RA_OF_ASC_NODE":"161.8570","OBJECT_TYPE":"PAYLOAD","CENTER_NAME":"EARTH","MEAN_MOTION_DDOT":"0.0000000000000","DECAY_DATE":null,"MEAN_ANOMALY":"83.6861","ELEMENT_SET_NO":"999","MEAN_ELEMENT_THEORY":"SGP4","FILE":"3862492","GP_ID":"228258083","NORAD_CAT_ID":"55570","RCS_SIZE":"LARGE","EPOCH":"2023-03-17T00:00:00.999648","PERIOD":"94.212","ECCENTRICITY":"0.00014950","REF_FRAME":"TEME","ARG_OF_PERICENTER":"273.1166","EPHEMERIS_TYPE":"0","MEAN_MOTION":"15.28464227","SEMIMAJOR_AXIS":"6858.540","PERIAPSIS":"479.379","BSTAR":"-0.04645900000000","REV_AT_EPOCH":"513","TLE_LINE2":"2 55570  42.9979 161.8570 0001495 273.1166  83.6861 15.28464227  5139","OBJECT_ID":"2023-020B","TIME_SYSTEM":"UTC","CLASSIFICATION_TYPE":"U","TLE_LINE1":"1 55570U 23020B   23076.00001157 -.01207791  00000-0 -46459-1 0  9999","OBJECT_NAME":"STARLINK-5737","APOAPSIS":"481.430"},{"BSTAR":"-0.04756800000000","REV_AT_EPOCH":"130","PERIAPSIS":"477.322","SEMIMAJOR_AXIS":"6856.424","TLE_LINE1":"1 55571U 23020C   23075.91667824 -.01259357  00000-0 -47568-1 0  9995","APOAPSIS":"479.257","OBJECT_NAME":"STARLINK-5739","OBJECT_ID":"2023-020C","TLE_LINE2":"2 55571  42.9975 162.2891 0001411 267.4685   5.7376 15.29171609  1308","TIME_SYSTEM":"UTC","CLASSIFICATION_TYPE":"U","OBJECT_TYPE":"PAYLOAD","LAUNCH_DATE":"2023-02-12","RA_OF_ASC_NODE":"162.2891","DECAY_DATE":null,"MEAN_ELEMENT_THEORY":"SGP4","ELEMENT_SET_NO":"999","MEAN_ANOMALY":"5.7376","MEAN_MOTION_DDOT":"0.0000000000000","CENTER_NAME":"EARTH","INCLINATION":"42.9975","SITE":"AFETR","COUNTRY_CODE":"US","MEAN_MOTION_DOT":"-0.01259357","MEAN_MOTION":"15.29171609","EPHEMERIS_TYPE":"0","REF_FRAME":"TEME","ARG_OF_PERICENTER":"267.4685","ECCENTRICITY":"0.00014110","FILE":"3862592","EPOCH":"2023-03-16T22:00:00.999936","PERIOD":"94.169","NORAD_CAT_ID":"55571","RCS_SIZE":"LARGE","GP_ID":"228286788"},{"MEAN_ELEMENT_THEORY":"SGP4","DECAY_DATE":null,"MEAN_ANOMALY":"9.0786","ELEMENT_SET_NO":"999","MEAN_MOTION_DDOT":"0.0000000000000","CENTER_NAME":"EARTH","OBJECT_TYPE":"PAYLOAD","RA_OF_ASC_NODE":"162.2748","LAUNCH_DATE":"2023-02-12","MEAN_MOTION_DOT":"-0.01259336","COUNTRY_CODE":"US","INCLINATION":"42.9981","SITE":"AFETR","MEAN_MOTION":"15.29331877","EPHEMERIS_TYPE":"0","ARG_OF_PERICENTER":"271.1177","REF_FRAME":"TEME","ECCENTRICITY":"0.00014260","EPOCH":"2023-03-16T22:00:00.999936","PERIOD":"94.159","NORAD_CAT_ID":"55572","RCS_SIZE":"LARGE","GP_ID":"228285037","FILE":"3862592","REV_AT_EPOCH":"130","BSTAR":"-0.04733100000000","PERIAPSIS":"476.833","SEMIMAJOR_AXIS":"6855.945","APOAPSIS":"478.788","OBJECT_NAME":"STARLINK-5732","TLE_LINE1":"1 55572U 23020D   23075.91667824 -.01259336  00000-0 -47331-1 0  9991","CLASSIFICATION_TYPE":"U","TIME_SYSTEM":"UTC","OBJECT_ID":"2023-020D","TLE_LINE2":"2 55572  42.9981 162.2748 0001426 271.1177   9.0786 15.29331877  1308"},{"OBJECT_NAME":"STARLINK-5738","APOAPSIS":"479.123","TLE_LINE1":"1 55573U 23020E   23075.91667824 -.01259447  00000-0 -47502-1 0  9995","CLASSIFICATION_TYPE":"U","TIME_SYSTEM":"UTC","OBJECT_ID":"2023-020E","TLE_LINE2":"2 55573  42.9977 162.2828 0001422 266.2493   9.5416 15.29218798  1306","REV_AT_EPOCH":"130","BSTAR":"-0.04750200000000","PERIAPSIS":"477.173","SEMIMAJOR_AXIS":"6856.283","MEAN_MOTION":"15.29218798","REF_FRAME":"TEME","ECCENTRICITY":"0.00014220","ARG_OF_PERICENTER":"266.2493","EPHEMERIS_TYPE":"0","EPOCH":"2023-03-16T22:00:00.999936","PERIOD":"94.166","GP_ID":"228285287","NORAD_CAT_ID":"55573","RCS_SIZE":"LARGE","FILE":"3862592","ELEMENT_SET_NO":"999","DECAY_DATE":null,"MEAN_ANOMALY":"9.5416","MEAN_ELEMENT_THEORY":"SGP4","CENTER_NAME":"EARTH","MEAN_MOTION_DDOT":"0.0000000000000","OBJECT_TYPE":"PAYLOAD","RA_OF_ASC_NODE":"162.2828","LAUNCH_DATE":"2023-02-12","MEAN_MOTION_DOT":"-0.01259447","COUNTRY_CODE":"US","INCLINATION":"42.9977","SITE":"AFETR"},{"SEMIMAJOR_AXIS":"6852.355","PERIAPSIS":"473.187","REV_AT_EPOCH":"130","BSTAR":"-0.04556800000000","TIME_SYSTEM":"UTC","CLASSIFICATION_TYPE":"U","TLE_LINE2":"2 55574  42.9979 162.1877 0001508 271.7737  44.3918 15.30533912  1303","OBJECT_ID":"2023-020F","APOAPSIS":"475.254","OBJECT_NAME":"STARLINK-5747","TLE_LINE1":"1 55574U 23020F   23075.91667824 -.01258780  00000-0 -45568-1 0  9995","COUNTRY_CODE":"US","MEAN_MOTION_DOT":"-0.01258780","SITE":"AFETR","INCLINATION":"42.9979","MEAN_MOTION_DDOT":"0.0000000000000","CENTER_NAME":"EARTH","MEAN_ANOMALY":"44.3918","DECAY_DATE":null,"MEAN_ELEMENT_THEORY":"SGP4","ELEMENT_SET_NO":"999","RA_OF_ASC_NODE":"162.1877","LAUNCH_DATE":"2023-02-12","OBJECT_TYPE":"PAYLOAD","RCS_SIZE":"LARGE","NORAD_CAT_ID":"55574","GP_ID":"228286538","EPOCH":"2023-03-16T22:00:00.999936","PERIOD":"94.085","FILE":"3862592","EPHEMERIS_TYPE":"0","ARG_OF_PERICENTER":"271.7737","REF_FRAME":"TEME","ECCENTRICITY":"0.00015080","MEAN_MOTION":"15.30533912"}];
